HORUS 2                 
1 55844U 23032A   26169.83060424  .00004384  00000+0  18698-3 0  9990
2 55844  97.3532 245.1987 0002306 104.2169 255.9324 15.23440282181738
GLOBAL-19               
1 55982U 23041B   26169.78697840  .00009156  00000+0  24556-3 0  9997
2 55982  42.0000 192.5569 0008499  13.6611 346.4457 15.38051305182175
BRO-9                   
1 56185U 23054H   26169.56754535  .01005040  59521-3  11215-2 0  9990
2 56185  97.2911  88.2699 0008911 173.5954 186.5445 16.09526550179314
ION SCV-010             
1 56192U 23054Q   26169.27455838  .00003456  00000+0  13618-3 0  9992
2 56192  97.3777  58.7620 0012295 193.1538 166.9382 15.26204057176362
TELEOS-2                
1 56310U 23057C   26168.75595669  .00000688  00000+0  45760-7 0  9997
2 56310   9.9867 200.0219 0000181 229.2865 130.7333 14.96411162172885
SNIPE 4                 
1 56744U 23072B   26169.83588433  .00016152  00000+0  37553-3 0  9996
2 56744  97.5247  15.8929 0004238 331.2610  28.8403 15.42403335170361
SNIPE 2                 
1 56745U 23072C   26169.87391510  .00021594  00000+0  43011-3 0  9991
2 56745  97.5240  18.9877 0003958   8.4595 351.6720 15.46917787170504
2023-072G               
1 56749U 23072G   26169.87032605  .00025602  00000+0  44730-3 0  9995
2 56749  97.4900  17.7890 0002580   2.8576 357.2690 15.50652313170727
GEISAT PRECURSOR        
1 56934U 23084C   26169.84895301  .00005719  00000+0  17272-3 0  9999
2 56934  97.6231 310.8563 0004791 351.1825   8.9332 15.34669006167783
BLACKJACK ACES-3        
1 56950U 23084U   26169.61987596  .00003890  00000+0  19212-3 0  9994
2 56950  97.6217 304.8211 0002466  33.9502 326.1889 15.18481598167380
BLACKJACK ACES-2        
1 56955U 23084Z   26169.62595294  .00002349  00000+0  11735-3 0  9990
2 56955  97.6214 304.9119 0000650  84.2678 275.8630 15.18488967167398
BLACKJACK ACES-1        
1 56956U 23084AA  26169.41608964  .00005006  00000+0  24529-3 0  9995
2 56956  97.6204 304.4745 0001274 104.4021 255.7354 15.18617319117084
ION SCV-011             
1 56957U 23084AB  26169.76799257  .00004253  00000+0  15473-3 0  9991
2 56957  98.1380 357.1932 0007886  40.6918 319.4908 15.28858952166055
GHOST-3                 
1 56958U 23084AC  26169.39177331  .00013695  00000+0  26449-3 0  9999
2 56958  97.6220 318.0278 0005476 288.7080  71.3575 15.47911875168208
TOMORROW-R2             
1 56962U 23084AG  26169.72339211  .00627137  21230-3  64924-3 0  9992
2 56962  97.6065 334.1979 0008950 243.3524 116.6843 16.10576976169300
AFR-1                   
1 56964U 23084AJ  26169.80343747  .00003578  00000+0  13145-3 0  9996
2 56964  97.6280 306.5330 0009802 340.9101  19.1769 15.28566247167475
METEOR-M2 3             
1 57166U 23091A   26169.85502900 -.00000011  00000+0  13884-4 0  9993
2 57166  98.6082 224.7993 0004441 151.1805 208.9620 14.24046937154759
UMKA 1 (RS40S)          
1 57172U 23091G   26169.80460954  .00004538  00000+0  20833-3 0  9995
2 57172  97.5046 228.4957 0014282 112.6040 247.6707 15.20833066164258
2023-091H               
1 57173U 23091H   26169.81944954  .00008719  00000+0  31491-3 0  9991
2 57173  97.5044 233.0248 0011272 108.2200 252.0267 15.28665333164559
2023-091J               
1 57174U 23091J   26169.84077316  .00002944  00000+0  16574-3 0  9993
2 57174  97.5051 222.9139 0014434 137.7326 222.5021 15.13935807163888
CUBEBEL 2 (EU11S)       
1 57175U 23091K   26169.81976767  .00009966  00000+0  35385-3 0  9991
2 57175  97.5047 233.0514 0011288 109.7835 250.4623 15.29184781164559
SITRO-AIS 5 (KATYS)     
1 57176U 23091L   26169.83643854  .00009122  00000+0  32101-3 0  9999
2 57176  97.5056 233.7518 0012745  98.4719 261.7966 15.29487426164596
ZORKIY-2M 1             
1 57177U 23091M   26169.85670144  .00005478  00000+0  25009-3 0  9993
2 57177  97.5087 228.8167 0014816 109.8892 250.3941 15.20921126164257
CUBESX-HSE 3 (RS42S)    
1 57178U 23091N   26169.80756742  .00010391  00000+0  34606-3 0  9991
2 57178  97.5087 235.4152 0012005  89.9269 270.3348 15.31248189164672
MONITOR-3 (RS58S)       
1 57180U 23091Q   26169.83563440  .00008087  00000+0  29927-3 0  9997
2 57180  97.5077 233.2937 0013086  95.7214 264.5518 15.27868513164540
MONITOR-4 (RS57S)       
1 57182U 23091S   26169.81459938  .00008428  00000+0  31095-3 0  9991
2 57182  97.5073 233.2441 0013071  96.1686 264.1042 15.27954436164548
MONITOR-2 (RS39S)       
1 57184U 23091U   26169.82789370  .00003963  00000+0  19275-3 0  9995
2 57184  97.5068 228.1003 0012768 106.1632 254.1008 15.18923152164201
SVYATOBOR 1 (RS60S)     
1 57187U 23091X   26169.82909054  .00006733  00000+0  25933-3 0  9997
2 57187  97.5086 233.6552 0010842  89.6350 270.6130 15.26637750164560
HORS 1                  
1 57188U 23091Y   26169.81451529  .00006964  00000+0  26730-3 0  9998
2 57188  97.5062 233.4028 0010305  89.4321 270.8099 15.26744997164569
VIZARD-METEO (RS38S)    
1 57189U 23091Z   26169.84136795  .00012276  00000+0  35131-3 0  9995
2 57189  97.5088 239.3596 0008161  72.8457 287.3680 15.36068617164946
