OBJECT_NAME,OBJECT_ID,EPOCH,MEAN_MOTION,ECCENTRICITY,INCLINATION,RA_OF_ASC_NODE,ARG_OF_PERICENTER,MEAN_ANOMALY,EPHEMERIS_TYPE,CLASSIFICATION_TYPE,NORAD_CAT_ID,ELEMENT_SET_NO,REV_AT_EPOCH,BSTAR,MEAN_MOTION_DOT,MEAN_MOTION_DDOT
HORUS 2,2023-032A,2026-06-18T19:56:04.206336,15.23440282,.0002306,97.3532,245.1987,104.2169,255.9324,0,U,55844,999,18173,.18698E-3,.4384E-4,0
GLOBAL-19,2023-041B,2026-06-18T18:53:14.933760,15.38051305,.0008499,42.0000,192.5569,13.6611,346.4457,0,U,55982,999,18217,.24556E-3,.9156E-4,0
BRO-9,2023-054H,2026-06-18T13:37:15.918240,16.09526550,.0008911,97.2911,88.2699,173.5954,186.5445,0,U,56185,999,17931,.11215E-2,.100504E-1,.59521E-3
ION SCV-010,2023-054Q,2026-06-18T06:35:21.844032,15.26204057,.0012295,97.3777,58.7620,193.1538,166.9382,0,U,56192,999,17636,.13618E-3,.3456E-4,0
TELEOS-2,2023-057C,2026-06-17T18:08:34.658016,14.96411162,.00001818,9.9867,200.0219,229.2865,130.7333,0,U,56310,999,17288,.4576E-7,.688E-5,0
SNIPE 4,2023-072B,2026-06-18T20:03:40.406112,15.42403335,.0004238,97.5247,15.8929,331.2610,28.8403,0,U,56744,999,17036,.37553E-3,.16152E-3,0
SNIPE 2,2023-072C,2026-06-18T20:58:26.264640,15.46917787,.0003958,97.5240,18.9877,8.4595,351.6720,0,U,56745,999,17050,.43011E-3,.21594E-3,0
2023-072G,2023-072G,2026-06-18T20:53:16.170720,15.50652313,.000258,97.4900,17.7890,2.8576,357.2690,0,U,56749,999,17072,.4473E-3,.25602E-3,0
GEISAT PRECURSOR,2023-084C,2026-06-18T20:22:29.540064,15.34669006,.0004791,97.6231,310.8563,351.1825,8.9332,0,U,56934,999,16778,.17272E-3,.5719E-4,0
BLACKJACK ACES-3,2023-084U,2026-06-18T14:52:37.282944,15.18481598,.0002466,97.6217,304.8211,33.9502,326.1889,0,U,56950,999,16738,.19212E-3,.389E-4,0
BLACKJACK ACES-2,2023-084Z,2026-06-18T15:01:22.334016,15.18488967,.000065,97.6214,304.9119,84.2678,275.8630,0,U,56955,999,16739,.11735E-3,.2349E-4,0
BLACKJACK ACES-1,2023-084AA,2026-06-18T09:59:10.144896,15.18617319,.0001274,97.6204,304.4745,104.4021,255.7354,0,U,56956,999,11708,.24529E-3,.5006E-4,0
ION SCV-011,2023-084AB,2026-06-18T18:25:54.558048,15.28858952,.0007886,98.1380,357.1932,40.6918,319.4908,0,U,56957,999,16605,.15473E-3,.4253E-4,0
GHOST-3,2023-084AC,2026-06-18T09:24:09.213984,15.47911875,.0005476,97.6220,318.0278,288.7080,71.3575,0,U,56958,999,16820,.26449E-3,.13695E-3,0
TOMORROW-R2,2023-084AG,2026-06-18T17:21:41.078304,16.10576976,.000895,97.6065,334.1979,243.3524,116.6843,0,U,56962,999,16930,.64924E-3,.627137E-2,.2123E-3
AFR-1,2023-084AJ,2026-06-18T19:16:56.997408,15.28566247,.0009802,97.6280,306.5330,340.9101,19.1769,0,U,56964,999,16747,.13145E-3,.3578E-4,0
METEOR-M2 3,2023-091A,2026-06-18T20:31:14.505600,14.24046937,.0004441,98.6082,224.7993,151.1805,208.9620,0,U,57166,999,15475,.13884E-4,-.11E-6,0
UMKA 1 (RS40S),2023-091G,2026-06-18T19:18:38.264256,15.20833066,.0014282,97.5046,228.4957,112.6040,247.6707,0,U,57172,999,16425,.20833E-3,.4538E-4,0
2023-091H,2023-091H,2026-06-18T19:40:00.440256,15.28665333,.0011272,97.5044,233.0248,108.2200,252.0267,0,U,57173,999,16455,.31491E-3,.8719E-4,0
2023-091J,2023-091J,2026-06-18T20:10:42.801024,15.13935807,.0014434,97.5051,222.9139,137.7326,222.5021,0,U,57174,999,16388,.16574E-3,.2944E-4,0
CUBEBEL 2 (EU11S),2023-091K,2026-06-18T19:40:27.926688,15.29184781,.0011288,97.5047,233.0514,109.7835,250.4623,0,U,57175,999,16455,.35385E-3,.9966E-4,0
SITRO-AIS 5 (KATYS),2023-091L,2026-06-18T20:04:28.289856,15.29487426,.0012745,97.5056,233.7518,98.4719,261.7966,0,U,57176,999,16459,.32101E-3,.9122E-4,0
ZORKIY-2M 1,2023-091M,2026-06-18T20:33:39.004416,15.20921126,.0014816,97.5087,228.8167,109.8892,250.3941,0,U,57177,999,16425,.25009E-3,.5478E-4,0
CUBESX-HSE 3 (RS42S),2023-091N,2026-06-18T19:22:53.825088,15.31248189,.0012005,97.5087,235.4152,89.9269,270.3348,0,U,57178,999,16467,.34606E-3,.10391E-3,0
MONITOR-3 (RS58S),2023-091Q,2026-06-18T20:03:18.812160,15.27868513,.0013086,97.5077,233.2937,95.7214,264.5518,0,U,57180,999,16454,.29927E-3,.8087E-4,0
MONITOR-4 (RS57S),2023-091S,2026-06-18T19:33:01.386432,15.27954436,.0013071,97.5073,233.2441,96.1686,264.1042,0,U,57182,999,16454,.31095E-3,.8428E-4,0
MONITOR-2 (RS39S),2023-091U,2026-06-18T19:52:10.015680,15.18923152,.0012768,97.5068,228.1003,106.1632,254.1008,0,U,57184,999,16420,.19275E-3,.3963E-4,0
SVYATOBOR 1 (RS60S),2023-091X,2026-06-18T19:53:53.422656,15.26637750,.0010842,97.5086,233.6552,89.6350,270.6130,0,U,57187,999,16456,.25933E-3,.6733E-4,0
HORS 1,2023-091Y,2026-06-18T19:32:54.121056,15.26744997,.0010305,97.5062,233.4028,89.4321,270.8099,0,U,57188,999,16456,.2673E-3,.6964E-4,0
VIZARD-METEO (RS38S),2023-091Z,2026-06-18T20:11:34.190880,15.36068617,.0008161,97.5088,239.3596,72.8457,287.3680,0,U,57189,999,16494,.35131E-3,.12276E-3,0
